[{"OBJECT_NAME":"ORBCOMM FM32","OBJECT_ID":"1999-065C","EPOCH":"2026-03-09T01:02:29.080032","MEAN_MOTION":14.3696516,"ECCENTRICITY":0.00057226,"INCLINATION":45.0154,"RA_OF_ASC_NODE":287.2018,"ARG_OF_PERICENTER":281.4865,"MEAN_ANOMALY":78.534,"EPHEMERIS_TYPE":0,"CLASSIFICATION_TYPE":"U","NORAD_CAT_ID":25982,"ELEMENT_SET_NO":999,"REV_AT_EPOCH":37268,"BSTAR":0.00040930249,"MEAN_MOTION_DOT":1.082e-5,"MEAN_MOTION_DDOT":0},{"OBJECT_NAME":"DELTA 1 DEB","OBJECT_ID":"1978-026M","EPOCH":"2026-03-09T15:08:25.351872","MEAN_MOTION":14.25867745,"ECCENTRICITY":0.0058673,"INCLINATION":98.7899,"RA_OF_ASC_NODE":99.5846,"ARG_OF_PERICENTER":180.1967,"MEAN_ANOMALY":309.0417,"EPHEMERIS_TYPE":0,"CLASSIFICATION_TYPE":"U","NORAD_CAT_ID":12172,"ELEMENT_SET_NO":999,"REV_AT_EPOCH":33778,"BSTAR":0.00018921,"MEAN_MOTION_DOT":4.14e-6,"MEAN_MOTION_DDOT":0}]
